[{"OBJECT_NAME":"STARLINK-35940","OBJECT_ID":"2025-271A","EPOCH":"2026-03-09T11:39:53.129376","MEAN_MOTION":15.3019203,"ECCENTRICITY":0.00013147,"INCLINATION":53.1569,"RA_OF_ASC_NODE":141.017,"ARG_OF_PERICENTER":60.7342,"MEAN_ANOMALY":299.379,"EPHEMERIS_TYPE":0,"CLASSIFICATION_TYPE":"U","NORAD_CAT_ID":66617,"ELEMENT_SET_NO":999,"REV_AT_EPOCH":1753,"BSTAR":0.00061835737,"MEAN_MOTION_DOT":0.00017995,"MEAN_MOTION_DDOT":0},{"OBJECT_NAME":"TRANSPORTER-1 OBJECT L","OBJECT_ID":"2021-006L","EPOCH":"2026-03-09T22:38:42.795168","MEAN_MOTION":15.33192932,"ECCENTRICITY":0.00114726,"INCLINATION":97.2368,"RA_OF_ASC_NODE":117.6447,"ARG_OF_PERICENTER":180.5165,"MEAN_ANOMALY":179.6068,"EPHEMERIS_TYPE":0,"CLASSIFICATION_TYPE":"U","NORAD_CAT_ID":47423,"ELEMENT_SET_NO":999,"REV_AT_EPOCH":28445,"BSTAR":0.00025636794,"MEAN_MOTION_DOT":8.162e-5,"MEAN_MOTION_DDOT":0}]
